[{"OBJECT_NAME":"STARLINK-5298","OBJECT_ID":"2023-010N","EPOCH":"2026-03-09T22:31:23.386368","MEAN_MOTION":14.98329657,"ECCENTRICITY":0.00029178,"INCLINATION":70.0007,"RA_OF_ASC_NODE":43.8115,"ARG_OF_PERICENTER":267.8478,"MEAN_ANOMALY":92.2347,"EPHEMERIS_TYPE":0,"CLASSIFICATION_TYPE":"U","NORAD_CAT_ID":55281,"ELEMENT_SET_NO":999,"REV_AT_EPOCH":17281,"BSTAR":1.947604e-6,"MEAN_MOTION_DOT":-7.0e-7,"MEAN_MOTION_DDOT":0},{"OBJECT_NAME":"UNKNOWN","OBJECT_ID":"","EPOCH":"2026-03-09T22:20:15.128160","MEAN_MOTION":14.68191429,"ECCENTRICITY":0.01272152,"INCLINATION":88.4815,"RA_OF_ASC_NODE":244.0436,"ARG_OF_PERICENTER":152.1426,"MEAN_ANOMALY":208.6681,"EPHEMERIS_TYPE":0,"CLASSIFICATION_TYPE":"U","NORAD_CAT_ID":270425,"ELEMENT_SET_NO":999,"REV_AT_EPOCH":8285,"BSTAR":0.0022696266,"MEAN_MOTION_DOT":0.00014807,"MEAN_MOTION_DDOT":0}]
